{"type": "FeatureCollection", "features": [ {"type": "Feature", "properties": {"norad_id": 28659, "name": "DIRECTV 8", "group": "intelsat", "lat": 0.031613405668084196, "lon": 146.898793112934, "alt_km": 35794.818475382286, "timestamp": "2025-12-23T11:34:47.849151+00:00", "meta": {"OBJECT_NAME": "DIRECTV 8", "OBJECT_ID": "2005-019A", "EPOCH": "2025-12-22T21:09:31.000320", "MEAN_MOTION": 1.00271524, "ECCENTRICITY": 0.00029245, "INCLINATION": 0.0181, "RA_OF_ASC_NODE": 18.4024, "ARG_OF_PERICENTER": 263.1502, "MEAN_ANOMALY": 8.4647, "EPHEMERIS_TYPE": 0, "CLASSIFICATION_TYPE": "U", "NORAD_CAT_ID": 28659, "ELEMENT_SET_NO": 999, "REV_AT_EPOCH": 7530, "BSTAR": 0, "MEAN_MOTION_DOT": 2.2e-07, "MEAN_MOTION_DDOT": 0}, "tle": {"line1": "1 28659U 05019A   25356.88160880  .00000022  00000+0  00000+0 0  9997", "line2": "2 28659   0.0181  18.4024 0002924 263.1502   8.4647  1.00271524 75303"}}, "geometry": {"type": "Point", "coordinates": [146.898793112934, 0.031613405668084196]}}, {"type": "Feature", "properties": {"norad_id": 28702, "name": "GALAXY 28 (G-28)", "group": "intelsat", "lat": 2.8381735673348762, "lon": 177.24825332100983, "alt_km": 35787.85601452636, "timestamp": "2025-12-23T11:34:47.849162+00:00", "meta": {"OBJECT_NAME": "GALAXY 28 (G-28)", "OBJECT_ID": "2005-022A", "EPOCH": "2025-12-20T00:49:30.482112", "MEAN_MOTION": 1.00271047, "ECCENTRICITY": 0.00029384, "INCLINATION": 2.8382, "RA_OF_ASC_NODE": 81.1982, "ARG_OF_PERICENTER": 194.0723, "MEAN_ANOMALY": 97.2981, "EPHEMERIS_TYPE": 0, "CLASSIFICATION_TYPE": "U", "NORAD_CAT_ID": 28702, "ELEMENT_SET_NO": 999, "REV_AT_EPOCH": 5017, "BSTAR": 0, "MEAN_MOTION_DOT": -1.65e-06, "MEAN_MOTION_DDOT": 0}, "tle": {"line1": "1 28702U 05022A   25354.03438058 -.00000165  00000+0  00000+0 0  9999", "line2": "2 28702   2.8382  81.1982 0002938 194.0723  97.2981  1.00271047 50172"}}, "geometry": {"type": "Point", "coordinates": [177.24825332100983, 2.8381735673348762]}}, {"type": "Feature", "properties": {"norad_id": 29236, "name": "GALAXY 16 (G-16)", "group": "intelsat", "lat": -0.0007829347088091762, "lon": 166.92408648048826, "alt_km": 35789.526261087216, "timestamp": "2025-12-23T11:34:47.849173+00:00", "meta": {"OBJECT_NAME": "GALAXY 16 (G-16)", "OBJECT_ID": "2006-023A", "EPOCH": "2025-12-22T19:32:17.808864", "MEAN_MOTION": 1.00270734, "ECCENTRICITY": 0.00025149, "INCLINATION": 0.0081, "RA_OF_ASC_NODE": 128.8096, "ARG_OF_PERICENTER": 145.2151, "MEAN_ANOMALY": 11.6522, "EPHEMERIS_TYPE": 0, "CLASSIFICATION_TYPE": "U", "NORAD_CAT_ID": 29236, "ELEMENT_SET_NO": 999, "REV_AT_EPOCH": 7120, "BSTAR": 0, "MEAN_MOTION_DOT": -1.05e-06, "MEAN_MOTION_DDOT": 0}, "tle": {"line1": "1 29236U 06023A   25356.81409501 -.00000105  00000+0  00000+0 0  9997", "line2": "2 29236   0.0081 128.8096 0002514 145.2151  11.6522  1.00270734 71209"}}, "geometry": {"type": "Point", "coordinates": [166.92408648048826, -0.0007829347088091762]}}, {"type": "Feature", "properties": {"norad_id": 29494, "name": "DIRECTV 9S", "group": "intelsat", "lat": 1.956635209005379, "lon": 164.7259213680382, "alt_km": 35790.36103455602, "timestamp": "2025-12-23T11:34:47.849184+00:00", "meta": {"OBJECT_NAME": "DIRECTV 9S", "OBJECT_ID": "2006-043A", "EPOCH": "2025-12-23T01:52:44.230080", "MEAN_MOTION": 1.00272153, "ECCENTRICITY": 0.0002885, "INCLINATION": 1.9652, "RA_OF_ASC_NODE": 83.103, "ARG_OF_PERICENTER": 193.9097, "MEAN_ANOMALY": 101.8389, "EPHEMERIS_TYPE": 0, "CLASSIFICATION_TYPE": "U", "NORAD_CAT_ID": 29494, "ELEMENT_SET_NO": 999, "REV_AT_EPOCH": 4961, "BSTAR": 0, "MEAN_MOTION_DOT": -9.3e-07, "MEAN_MOTION_DDOT": 0}, "tle": {"line1": "1 29494U 06043A   25357.07828970 -.00000093  00000+0  00000+0 0  9995", "line2": "2 29494   1.9652  83.1030 0002885 193.9097 101.8389  1.00272153 49610"}}, "geometry": {"type": "Point", "coordinates": [164.7259213680382, 1.956635209005379]}}, {"type": "Feature", "properties": {"norad_id": 31307, "name": "GALAXY 17 (G-17)", "group": "intelsat", "lat": 2.5015090801680344, "lon": -179.07022305392496, "alt_km": 35779.889933770784, "timestamp": "2025-12-23T11:34:47.849195+00:00", "meta": {"OBJECT_NAME": "GALAXY 17 (G-17)", "OBJECT_ID": "2007-016B", "EPOCH": "2025-12-23T02:27:25.244064", "MEAN_MOTION": 1.00269656, "ECCENTRICITY": 0.0005337, "INCLINATION": 2.5244, "RA_OF_ASC_NODE": 82.1687, "ARG_OF_PERICENTER": 171.888, "MEAN_ANOMALY": 149.7107, "EPHEMERIS_TYPE": 0, "CLASSIFICATION_TYPE": "U", "NORAD_CAT_ID": 31307, "ELEMENT_SET_NO": 999, "REV_AT_EPOCH": 6803, "BSTAR": 0, "MEAN_MOTION_DOT": -1.86e-06, "MEAN_MOTION_DDOT": 0}, "tle": {"line1": "1 31307U 07016B   25357.10237551 -.00000186  00000+0  00000+0 0  9998", "line2": "2 31307   2.5244  82.1687 0005337 171.8880 149.7107  1.00269656 68037"}}, "geometry": {"type": "Point", "coordinates": [-179.07022305392496, 2.5015090801680344]}}, {"type": "Feature", "properties": {"norad_id": 31862, "name": "DIRECTV 10", "group": "intelsat", "lat": 0.004381350758735128, "lon": 163.17517023663004, "alt_km": 35784.99306427324, "timestamp": "2025-12-23T11:34:47.849206+00:00", "meta": {"OBJECT_NAME": "DIRECTV 10", "OBJECT_ID": "2007-032A", "EPOCH": "2025-12-22T14:23:17.397024", "MEAN_MOTION": 1.00274167, "ECCENTRICITY": 2.112e-05, "INCLINATION": 0.0071, "RA_OF_ASC_NODE": 104.9786, "ARG_OF_PERICENTER": 118.9337, "MEAN_ANOMALY": 340.5167, "EPHEMERIS_TYPE": 0, "CLASSIFICATION_TYPE": "U", "NORAD_CAT_ID": 31862, "ELEMENT_SET_NO": 999, "REV_AT_EPOCH": 4382, "BSTAR": 0, "MEAN_MOTION_DOT": -8.2e-07, "MEAN_MOTION_DDOT": 0}, "tle": {"line1": "1 31862U 07032A   25356.59950691 -.00000082  00000+0  00000+0 0  9996", "line2": "2 31862   0.0071 104.9786 0000211 118.9337 340.5167  1.00274167 43822"}}, "geometry": {"type": "Point", "coordinates": [163.17517023663004, 0.004381350758735128]}}, {"type": "Feature", "properties": {"norad_id": 32253, "name": "INTELSAT 11 (IS-11)", "group": "intelsat", "lat": 0.21452985446119288, "lon": 84.40216482236849, "alt_km": 36166.71908708567, "timestamp": "2025-12-23T11:34:47.849216+00:00", "meta": {"OBJECT_NAME": "INTELSAT 11 (IS-11)", "OBJECT_ID": "2007-044B", "EPOCH": "2025-12-22T19:09:49.960224", "MEAN_MOTION": 0.99052824, "ECCENTRICITY": 0.0008553, "INCLINATION": 3.1047, "RA_OF_ASC_NODE": 80.8652, "ARG_OF_PERICENTER": 169.9478, "MEAN_ANOMALY": 309.7083, "EPHEMERIS_TYPE": 0, "CLASSIFICATION_TYPE": "U", "NORAD_CAT_ID": 32253, "ELEMENT_SET_NO": 999, "REV_AT_EPOCH": 6670, "BSTAR": 0, "MEAN_MOTION_DOT": -1.28e-06, "MEAN_MOTION_DDOT": 0}, "tle": {"line1": "1 32253U 07044B   25356.79849491 -.00000128  00000+0  00000+0 0  9992", "line2": "2 32253   3.1047  80.8652 0008553 169.9478 309.7083  0.99052824 66704"}}, "geometry": {"type": "Point", "coordinates": [84.40216482236849, 0.21452985446119288]}}, {"type": "Feature", "properties": {"norad_id": 32388, "name": "HORIZONS-2", "group": "intelsat", "lat": 2.028005433733798, "lon": -167.8627014142887, "alt_km": 35784.843877655076, "timestamp": "2025-12-23T11:34:47.849227+00:00", "meta": {"OBJECT_NAME": "HORIZONS-2", "OBJECT_ID": "2007-063B", "EPOCH": "2025-12-22T21:22:29.757216", "MEAN_MOTION": 1.00270659, "ECCENTRICITY": 0.0004651, "INCLINATION": 2.1464, "RA_OF_ASC_NODE": 82.8521, "ARG_OF_PERICENTER": 195.4042, "MEAN_ANOMALY": 60.2691, "EPHEMERIS_TYPE": 0, "CLASSIFICATION_TYPE": "U", "NORAD_CAT_ID": 32388, "ELEMENT_SET_NO": 999, "REV_AT_EPOCH": 6604, "BSTAR": 0, "MEAN_MOTION_DOT": -2.33e-06, "MEAN_MOTION_DDOT": 0}, "tle": {"line1": "1 32388U 07063B   25356.89062219 -.00000233  00000+0  00000+0 0  9995", "line2": "2 32388   2.1464  82.8521 0004651 195.4042  60.2691  1.00270659 66040"}}, "geometry": {"type": "Point", "coordinates": [-167.8627014142887, 2.028005433733798]}}, {"type": "Feature", "properties": {"norad_id": 32729, "name": "DIRECTV 11", "group": "intelsat", "lat": -0.006949741276177905, "lon": 166.74341970136368, "alt_km": 35783.76233867625, "timestamp": "2025-12-23T11:34:47.849238+00:00", "meta": {"OBJECT_NAME": "DIRECTV 11", "OBJECT_ID": "2008-013A", "EPOCH": "2025-12-21T16:09:00.789984", "MEAN_MOTION": 1.00267418, "ECCENTRICITY": 8.567e-05, "INCLINATION": 0.0458, "RA_OF_ASC_NODE": 200.3144, "ARG_OF_PERICENTER": 330.5483, "MEAN_ANOMALY": 62.6867, "EPHEMERIS_TYPE": 0, "CLASSIFICATION_TYPE": "U", "NORAD_CAT_ID": 32729, "ELEMENT_SET_NO": 999, "REV_AT_EPOCH": 4381, "BSTAR": 0, "MEAN_MOTION_DOT": -1.03e-06, "MEAN_MOTION_DDOT": 0}, "tle": {"line1": "1 32729U 08013A   25355.67292581 -.00000103  00000+0  00000+0 0  9998", "line2": "2 32729   0.0458 200.3144 0000856 330.5483  62.6867  1.00267418 43811"}}, "geometry": {"type": "Point", "coordinates": [166.74341970136368, -0.006949741276177905]}}, {"type": "Feature", "properties": {"norad_id": 32951, "name": "GALAXY 18 (G-18)", "group": "intelsat", "lat": 0.004283680816541321, "lon": 142.93116794053876, "alt_km": 35794.52534396696, "timestamp": "2025-12-23T11:34:47.849249+00:00", "meta": {"OBJECT_NAME": "GALAXY 18 (G-18)", "OBJECT_ID": "2008-024A", "EPOCH": "2025-12-23T03:37:40.285344", "MEAN_MOTION": 1.0027196, "ECCENTRICITY": 0.0002913, "INCLINATION": 0.0165, "RA_OF_ASC_NODE": 296.4948, "ARG_OF_PERICENTER": 340.0613, "MEAN_ANOMALY": 106.7977, "EPHEMERIS_TYPE": 0, "CLASSIFICATION_TYPE": "U", "NORAD_CAT_ID": 32951, "ELEMENT_SET_NO": 999, "REV_AT_EPOCH": 4408, "BSTAR": 0, "MEAN_MOTION_DOT": 4.6e-07, "MEAN_MOTION_DDOT": 0}, "tle": {"line1": "1 32951U 08024A   25357.15116071  .00000046  00000+0  00000+0 0  9996", "line2": "2 32951   0.0165 296.4948 0002913 340.0613 106.7977  1.00271960 44087"}}, "geometry": {"type": "Point", "coordinates": [142.93116794053876, 0.004283680816541321]}}]}